[{"OBJECT_NAME":"STARLINK-32696","OBJECT_ID":"2024-239K","EPOCH":"2026-03-09T21:43:13.766880","MEAN_MOTION":15.30178142,"ECCENTRICITY":0.0001192,"INCLINATION":53.1578,"RA_OF_ASC_NODE":193.1542,"ARG_OF_PERICENTER":68.9211,"MEAN_ANOMALY":291.1917,"EPHEMERIS_TYPE":0,"CLASSIFICATION_TYPE":"U","NORAD_CAT_ID":62310,"ELEMENT_SET_NO":999,"REV_AT_EPOCH":6941,"BSTAR":0.00093902373,"MEAN_MOTION_DOT":0.00027536,"MEAN_MOTION_DDOT":0},{"OBJECT_NAME":"GEOSCAN 3 (RS92S3)","OBJECT_ID":"2025-155T","EPOCH":"2026-03-09T22:52:10.587648","MEAN_MOTION":15.31696739,"ECCENTRICITY":0.00068078,"INCLINATION":97.4455,"RA_OF_ASC_NODE":37.9971,"ARG_OF_PERICENTER":154.1387,"MEAN_ANOMALY":206.0196,"EPHEMERIS_TYPE":0,"CLASSIFICATION_TYPE":"U","NORAD_CAT_ID":64893,"ELEMENT_SET_NO":999,"REV_AT_EPOCH":6564,"BSTAR":0.00078414081,"MEAN_MOTION_DOT":0.00023985,"MEAN_MOTION_DDOT":0}]
